NORAD_CAT_ID,OBJECT_NAME,OBJECT_TYPE,EPOCH,MEAN_MOTION,ECCENTRICITY,INCLINATION,RA_OF_ASC_NODE,ARG_OF_PERICENTER,MEAN_ANOMALY,BSTAR,MEAN_MOTION_DOT,MEAN_MOTION_DDOT,TLE_LINE0,TLE_LINE1,TLE_LINE2,SEMIMAJOR_AXIS,PERIOD,APOGEE,PERIGEE,DECAYED
53259.0,STARLINK-4140,PAYLOAD,2024-03-03 20:22:01,15.08837139,0.0001341,53.2162,257.0794,79.2556,280.8587,2.785e-05,1.55e-06,0.0,0 STARLINK-4140,1 53259U 22086T   24063.84863187  .00000155  00000-0  27850-4 0  9999,2 53259  53.2162 257.0794 0001341  79.2556 280.8587 15.08837139 89989,6917.889,95.438,540.682,538.826,0.0
53259.0,STARLINK-4140,PAYLOAD,2024-03-03 21:57:24,15.08840226,0.0001342,53.2163,256.7816,87.2834,272.8312,5.1181e-05,5.27e-06,0.0,0 STARLINK-4140,1 53259U 22086T   24063.91486906  .00000527  00000-0  51181-4 0  9994,2 53259  53.2163 256.7816 0001342  87.2834 272.8312 15.08840226 89810,6917.88,95.438,540.673,538.816,0.0
53259.0,STARLINK-4140,PAYLOAD,2024-03-04 12:15:52,15.08847595,0.000129,53.2154,254.1079,100.8014,259.3123,2.6546e-05,1.35e-06,0.0,0 STARLINK-4140,1 53259U 22086T   24064.51102531  .00000135  00000-0  26546-4 0  9992,2 53259  53.2154 254.1079 0001290 100.8014 259.3123 15.08847595 90084,6917.857,95.437,540.615,538.83,0.0
53259.0,STARLINK-4140,PAYLOAD,2024-03-04 20:12:47,15.08852021,0.000128,53.2159,252.6237,64.7999,295.3126,7.3227e-05,8.78e-06,0.0,0 STARLINK-4140,1 53259U 22086T   24064.84222072  .00000878  00000-0  73227-4 0  9993,2 53259  53.2159 252.6237 0001280  64.7999 295.3126 15.08852021 89954,6917.844,95.437,540.594,538.823,0.0
53259.0,STARLINK-4140,PAYLOAD,2024-03-05 12:06:39,15.08836,0.0001148,53.2156,249.6491,76.6625,283.4495,7.7178e-05,9.41e-06,0.0,0 STARLINK-4140,1 53259U 22086T   24065.50462954  .00000941  00000-0  77178-4 0  9992,2 53259  53.2156 249.6491 0001148  76.6625 283.4495 15.08836000 90239,6917.893,95.438,540.552,538.963,0.0
53259.0,STARLINK-4140,PAYLOAD,2024-03-05 18:28:12,15.0883732,0.000116,53.2162,248.4569,106.7599,253.3521,1.592e-05,-3.4e-07,0.0,0 STARLINK-4140,1 53259U 22086T   24065.76959142 -.00000034  00000-0  15920-4 0  9991,2 53259  53.2162 248.4569 0001160 106.7599 253.3521 15.08837320 90094,6917.889,95.438,540.556,538.951,0.0
53259.0,STARLINK-4140,PAYLOAD,2024-03-06 11:57:27,15.08837203,9.81e-05,53.2171,245.1872,100.7198,259.3904,0.00010997,1.463e-05,0.0,0 STARLINK-4140,1 53259U 22086T   24066.49823005  .00001463  00000-0  10997-3 0  9994,2 53259  53.2171 245.1872 0000981 100.7198 259.3904 15.08837203 90387,6917.889,95.438,540.433,539.075,0.0
53259.0,STARLINK-4140,PAYLOAD,2024-03-06 18:18:59,15.08845601,0.0001202,53.2157,243.9986,99.2754,260.8374,7.9174e-05,9.73e-06,0.0,0 STARLINK-4140,1 53259U 22086T   24066.76318721  .00000973  00000-0  79174-4 0  9996,2 53259  53.2157 243.9986 0001202  99.2754 260.8374 15.08845601 90244,6917.863,95.437,540.56,538.897,0.0
53259.0,STARLINK-4140,PAYLOAD,2024-03-07 14:59:00,15.08835998,0.0001299,53.2152,240.1329,95.0694,265.0446,0.00019783,2.862e-05,0.0,0 STARLINK-4140,1 53259U 22086T   24067.62431493  .00002862  00000-0  19783-3 0  9992,2 53259  53.2152 240.1329 0001299  95.0694 265.0446 15.08835998 90551,6917.893,95.438,540.656,538.859,0.0
53259.0,STARLINK-4140,PAYLOAD,2024-03-09 09:54:25,15.08840602,0.0001311,53.2153,232.1051,90.7362,269.378,0.00016504,2.34e-05,0.0,0 STARLINK-4140,1 53259U 22086T   24069.41279540  .00002340  00000-0  16504-3 0  9993,2 53259  53.2153 232.1051 0001311  90.7362 269.3780 15.08840602 90640,6917.879,95.438,540.65,538.837,0.0
53259.0,STARLINK-4140,PAYLOAD,2024-03-09 17:51:21,15.08837854,0.0001293,53.2153,230.6179,88.9347,271.1793,8.9963e-05,1.144e-05,0.0,0 STARLINK-4140,1 53259U 22086T   24069.74399685  .00001144  00000-0  89963-4 0  9993,2 53259  53.2153 230.6179 0001293  88.9347 271.1793 15.08837854 90870,6917.887,95.438,540.646,538.857,0.0
53259.0,STARLINK-4140,PAYLOAD,2024-03-10 03:23:39,15.08842497,0.000175,53.2161,228.8323,83.7933,276.3259,0.00012787,1.748e-05,0.0,0 STARLINK-4140,1 53259U 22086T   24070.14143501  .00001748  00000-0  12787-3 0  9992,2 53259  53.2161 228.8323 0001750  83.7933 276.3259 15.08842497 90931,6917.873,95.437,540.948,538.527,0.0
53259.0,STARLINK-4140,PAYLOAD,2024-03-10 19:17:32,15.08829166,0.0002418,53.2169,225.8598,89.9843,270.1426,-6.7954e-05,-1.369e-05,0.0,0 STARLINK-4140,1 53259U 22086T   24070.80384565 -.00001369  00000-0 -67954-4 0  9990,2 53259  53.2169 225.8598 0002418  89.9843 270.1426 15.08829166 90857,6917.914,95.438,541.451,538.106,0.0
53259.0,STARLINK-4140,PAYLOAD,2024-03-11 19:08:18,15.0884319,0.0001472,53.2145,221.3981,83.6826,276.4333,0.00013153,1.806e-05,0.0,0 STARLINK-4140,1 53259U 22086T   24071.79743895  .00001806  00000-0  13153-3 0  9999,2 53259  53.2145 221.3981 0001472  83.6826 276.4333 15.08843190 91006,6917.871,95.437,540.754,538.717,0.0
53259.0,STARLINK-4140,PAYLOAD,2024-03-12 15:48:19,15.08838786,0.0001205,53.2153,217.5328,92.2969,267.8161,0.00010503,1.384e-05,0.0,0 STARLINK-4140,1 53259U 22086T   24072.65856173  .00001384  00000-0  10503-3 0  9996,2 53259  53.2153 217.5328 0001205  92.2969 267.8161 15.08838786 91137,6917.884,95.438,540.583,538.915,0.0
53259.0,STARLINK-4140,PAYLOAD,2024-03-12 18:59:05,15.08841442,0.000139,53.2154,216.9378,87.8197,272.2955,0.00011969,1.618e-05,0.0,0 STARLINK-4140,1 53259U 22086T   24072.79104076  .00001618  00000-0  11969-3 0  9996,2 53259  53.2154 216.9378 0001390  87.8197 272.2955 15.08841442 91330,6917.876,95.437,540.703,538.779,0.0
53259.0,STARLINK-4140,PAYLOAD,2024-03-13 02:56:01,15.08845718,0.0001526,53.2099,215.4514,97.9457,262.1709,0.00015977,2.256e-05,0.0,0 STARLINK-4140,1 53259U 22086T   24073.12223890  .00002256  00000-0  15977-3 0  9992,2 53259  53.2099 215.4514 0001526  97.9457 262.1709 15.08845718 91386,6917.863,95.437,540.784,538.672,0.0
53259.0,STARLINK-4140,PAYLOAD,2024-03-13 18:49:52,15.0884301,0.0001364,53.2153,212.476,106.9622,253.1519,0.00020668,3.003e-05,0.0,0 STARLINK-4140,1 53259U 22086T   24073.78463902  .00003003  00000-0  20668-3 0  9998,2 53259  53.2153 212.4760 0001364 106.9622 253.1519 15.08843010 91306,6917.871,95.437,540.68,538.793,0.0
53259.0,STARLINK-4140,PAYLOAD,2024-03-14 12:19:07,15.08837631,0.000182,53.2147,209.204,106.6699,253.4493,0.00036987,5.603e-05,0.0,0 STARLINK-4140,1 53259U 22086T   24074.51328043  .00005603  00000-0  36987-3 0  9995,2 53259  53.2147 209.2040 0001820 106.6699 253.4493 15.08837631 91410,6917.888,95.438,541.012,538.494,0.0
53259.0,STARLINK-4140,PAYLOAD,2024-03-15 12:09:54,15.08838037,0.0001728,53.2152,204.7424,107.5204,252.5977,-1.8978e-06,-3.18e-06,0.0,0 STARLINK-4140,1 53259U 22086T   24075.50687950 -.00000318  00000-0 -18978-5 0  9992,2 53259  53.2152 204.7424 0001728 107.5204 252.5977 15.08838037 91565,6917.886,95.438,540.947,538.556,0.0
53259.0,STARLINK-4140,PAYLOAD,2024-03-16 12:00:42,15.08831235,0.0001617,53.2147,200.2777,113.3076,246.8086,1.6727e-05,-2.2e-07,0.0,0 STARLINK-4140,1 53259U 22086T   24076.50048628 -.00000022  00000-0  16727-4 0  9996,2 53259  53.2147 200.2777 0001617 113.3076 246.8086 15.08831235 91717,6917.907,95.438,540.891,538.654,0.0
53259.0,STARLINK-4140,PAYLOAD,2024-03-16 13:36:05,15.08830372,0.0001339,53.2161,199.9815,99.7162,260.3981,5.8723e-06,-1.94e-06,0.0,0 STARLINK-4140,1 53259U 22086T   24076.56672811 -.00000194  00000-0  58723-5 0  9992,2 53259  53.2161 199.9815 0001339  99.7162 260.3981 15.08830372 91901,6917.91,95.438,540.701,538.849,0.0
53259.0,STARLINK-4140,PAYLOAD,2024-03-17 13:26:52,15.0883475,0.0001347,53.2167,195.5237,100.4314,259.683,9.5841e-05,1.238e-05,0.0,0 STARLINK-4140,1 53259U 22086T   24077.56032696  .00001238  00000-0  95841-4 0  9994,2 53259  53.2167 195.5237 0001347 100.4314 259.6830 15.08834750 92050,6917.896,95.438,540.693,538.83,0.0
53259.0,STARLINK-4140,PAYLOAD,2024-03-17 18:13:01,15.08835657,0.0001425,53.217,194.6324,105.8764,254.2385,0.00010022,1.307e-05,0.0,0 STARLINK-4140,1 53259U 22086T   24077.75904693  .00001307  00000-0  10022-3 0  9994,2 53259  53.2170 194.6324 0001425 105.8764 254.2385 15.08835657 91902,6917.894,95.438,540.744,538.773,0.0
53259.0,STARLINK-4140,PAYLOAD,2024-03-18 11:42:16,15.08838187,0.0001395,53.2172,191.3619,103.5224,256.5923,0.00013692,1.892e-05,0.0,0 STARLINK-4140,1 53259U 22086T   24078.48768641  .00001892  00000-0  13692-3 0  9991,2 53259  53.2172 191.3619 0001395 103.5224 256.5923 15.08838187 92193,6917.886,95.438,540.716,538.786,0.0
53259.0,STARLINK-4140,PAYLOAD,2024-03-18 16:28:25,15.08839617,0.0001377,53.2172,190.4697,100.4787,259.6361,0.00014284,1.986e-05,0.0,0 STARLINK-4140,1 53259U 22086T   24078.68640597  .00001986  00000-0  14284-3 0  9994,2 53259  53.2172 190.4697 0001377 100.4787 259.6361 15.08839617 92222,6917.882,95.438,540.699,538.794,0.0
53259.0,STARLINK-4140,PAYLOAD,2024-03-19 11:33:03,15.08844772,0.0001707,53.2183,186.9048,118.9337,241.1827,6.6809e-05,7.75e-06,0.0,0 STARLINK-4140,1 53259U 22086T   24079.48128542  .00000775  00000-0  66809-4 0  9990,2 53259  53.2183 186.9048 0001707 118.9337 241.1827 15.08844772 92340,6917.866,95.437,540.912,538.55,0.0
53259.0,STARLINK-4140,PAYLOAD,2024-03-19 13:08:26,15.08846024,0.0001704,53.2179,186.6072,117.8898,242.2267,7.9806e-05,9.82e-06,0.0,0 STARLINK-4140,1 53259U 22086T   24079.54752414  .00000982  00000-0  79806-4 0  9999,2 53259  53.2179 186.6072 0001704 117.8898 242.2267 15.08846024 92179,6917.862,95.437,540.906,538.548,0.0
53259.0,STARLINK-4140,PAYLOAD,2024-03-20 06:37:41,15.08838524,0.0001501,53.2173,183.3421,67.4775,292.6376,6.9642e-05,8.21e-06,0.0,0 STARLINK-4140,1 53259U 22086T   24080.27617142  .00000821  00000-0  69642-4 0  9998,2 53259  53.2173 183.3421 0001501  67.4775 292.6376 15.08838524 92282,6917.885,95.438,540.788,538.712,0.0
53259.0,STARLINK-4140,PAYLOAD,2024-03-20 11:23:52,15.08813193,0.0001581,53.2182,182.4463,95.0038,265.1134,-0.00017115,-3.009e-05,0.0,0 STARLINK-4140,1 53259U 22086T   24080.47491419 -.00003009  00000-0 -17115-3 0  9997,2 53259  53.2182 182.4463 0001581  95.0038 265.1134 15.08813193 92490,6917.962,95.439,540.921,538.734,0.0
